[{"OBJECT_NAME":"STARLINK-34410","OBJECT_ID":"2025-130C","EPOCH":"2026-03-09T08:14:47.532480","MEAN_MOTION":15.30203151,"ECCENTRICITY":0.00012665,"INCLINATION":53.1586,"RA_OF_ASC_NODE":89.8949,"ARG_OF_PERICENTER":84.1429,"MEAN_ANOMALY":275.9716,"EPHEMERIS_TYPE":0,"CLASSIFICATION_TYPE":"U","NORAD_CAT_ID":64440,"ELEMENT_SET_NO":999,"REV_AT_EPOCH":4065,"BSTAR":0.00063757026,"MEAN_MOTION_DOT":0.00018573,"MEAN_MOTION_DDOT":0},{"OBJECT_NAME":"GLOBAL-34","OBJECT_ID":"2026-043A","EPOCH":"2026-03-09T11:23:30.999840","MEAN_MOTION":15.31488019,"ECCENTRICITY":0.00068849,"INCLINATION":42.0215,"RA_OF_ASC_NODE":76.7399,"ARG_OF_PERICENTER":289.2632,"MEAN_ANOMALY":70.746,"EPHEMERIS_TYPE":0,"CLASSIFICATION_TYPE":"U","NORAD_CAT_ID":68098,"ELEMENT_SET_NO":999,"REV_AT_EPOCH":53,"BSTAR":0.00045822046,"MEAN_MOTION_DOT":0.00014018,"MEAN_MOTION_DDOT":0}]
