STARLINK-34410          
1 64440U 25130C   26068.34360570  .00018573  00000+0  63757-3 0  9993
2 64440  53.1586  89.8949 0001266  84.1429 275.9716 15.30203151 40651
GLOBAL-34               
1 68098U 26043A   26068.47466435  .00014018  00000+0  45822-3 0  9994
2 68098  42.0215  76.7399 0006884 289.2632  70.7460 15.31488019   538
